E-ST@R-II               
1 41459U 16025D   22004.30295851  .00005912  00000+0  27740-3 0  9997
2 41459  98.1653 158.0404 0156465 105.1031 256.7585 15.09798850312700
AAUSAT 4                
1 41460U 16025E   22004.40928757  .00008194  00000+0  35914-3 0  9995
2 41460  98.1616 163.1333 0140818  84.9678 276.7569 15.13698091313082
BEESAT-4                
1 41619U 16040W   22003.69748572  .00005449  00000+0  20752-3 0  9997
2 41619  97.2435  59.0370 0009841 352.5715   7.5377 15.27090381295558
CANX-7                  
1 41788U 16059F   22003.88346595  .00052360  00000+0  44373-2 0  9992
2 41788  98.2433 122.8611 0022748 255.7700 104.0950 14.97555385283722
RAVAN                   
1 41849U 16067B   22003.75305308  .00001498  00000+0  12692-3 0  9998
2 41849  97.9834 136.2812 0009417 168.0900 192.0546 14.99546964281304
CELTEE 1                
1 41850U 16067C   22004.33289422  .00000333  00000+0  33659-4 0  9997
2 41850  97.9758 132.6180 0008862 157.7784 202.3823 14.97740969281185
OPTICUBE 04             
1 41851U 16067D   22003.91973768 -.00000032  00000+0  26036-5 0  9993
2 41851  97.9752 131.4249 0008984 159.3118 200.8469 14.97306322281086
AEROCUBE 8D             
1 41852U 16067E   22003.90429736  .00001448  00000+0  12927-3 0  9997
2 41852  97.9750 131.3270 0010041 158.2092 201.9559 14.97546666281061
AEROCUBE 8C             
1 41853U 16067F   22004.34966355  .00001092  00000+0  98895-4 0  9994
2 41853  97.9729 131.6251 0010487 161.8640 198.2958 14.97505137281129
PROMETHEUS 2-1          
1 41854U 16067G   22004.34770322  .00001494  00000+0  13108-3 0  9991
2 41854  97.9735 132.4386 0010723 161.3288 198.8329 14.98173935281161
PROMETHEUS 2-3          
1 41855U 16067H   22003.80843935  .00001480  00000+0  12987-3 0  9992
2 41855  97.9739 131.9542 0010613 164.4764 195.6785 14.98192577281080
INS-1B                  
1 41954U 17008G   22002.96517918  .00004996  00000+0  18705-3 0  9992
2 41954  97.2839  66.5715 0010124 103.2414 256.9956 15.27695936271450
BGUSAT                  
1 41999U 17008BD  22003.14141447  .00009988  00000+0  31725-3 0  9995
2 41999  97.3047  75.0974 0008408 101.2964 258.9224 15.32809451271267
DIDO-2                  
1 42000U 17008BE  22003.91151278  .00002979  00000+0  11743-3 0  9998
2 42000  97.2827  67.4174 0009481 117.2362 242.9844 15.26303961270958
PEASSS                  
1 42015U 17008BV  22003.42280681  .00004270  00000+0  15770-3 0  9991
2 42015  97.2886  70.0292 0007340 115.6062 244.5937 15.28254610271546
AL-FARABI 1             
1 42016U 17008BW  22003.74131209  .00006192  00000+0  21627-3 0  9991
2 42016  97.2944  72.6797 0007124 111.8504 248.3495 15.29907122271836
NAYIF-1 (EO-88)         
1 42017U 17008BX  22003.70125194  .00006054  00000+0  21107-3 0  9994
2 42017  97.2934  72.6464 0007214 111.5344 248.6666 15.29977628271859
UCLSAT                  
1 42765U 17036A   22003.92358933  .00004093  00000+0  16054-3 0  9994
2 42765  97.2233  51.9747 0010261 178.6732 181.4536 15.26243115252736
LITUANICASAT-2          
1 42768U 17036D   22003.69364772  .00008616  00000+0  31009-3 0  9991
2 42768  97.2319  53.3205 0013068 168.2442 191.9106 15.28747949252038
AALTO-1                 
1 42775U 17036L   22003.87220829  .00002474  00000+0  10624-3 0  9999
2 42775  97.2215  47.8222 0013095 180.6430 179.4793 15.23518742251701
URSA MAIOR              
1 42776U 17036M   22003.76929089  .00002990  00000+0  12649-3 0  9994
2 42776  97.2229  48.3151 0012877 180.0243 180.0996 15.23880591251715
COMPASS 2               
1 42777U 17036N   22003.05526673  .00006189  00000+0  23183-3 0  9998
2 42777  97.2306  52.5738 0011229 171.4559 188.6874 15.27569596251862
DIAMOND RED             
1 42783U 17036U   22004.06138509  .00003110  00000+0  12756-3 0  9999
2 42783  97.2241  50.6251 0011084 184.1478 175.9671 15.24919668251877
PEGASUS                 
1 42784U 17036V   22003.70424170  .00003716  00000+0  14850-3 0  9991
2 42784  97.2246  51.1687 0010849 182.7329 177.3852 15.25668591251873
DIAMOND GREEN           
1 42785U 17036W   22003.40461875  .00003591  00000+0  14682-3 0  9996
2 42785  97.2247  50.0469 0010903 186.8892 173.2198 15.24927243251769
DIAMOND BLUE            
1 42786U 17036X   22003.92863667  .00003244  00000+0  13288-3 0  9995
2 42786  97.2245  50.5446 0010898 185.5375 174.5744 15.24925947251842
NUDTSAT                 
1 42787U 17036Y   22004.39914273  .00008283  00000+0  30197-3 0  9994
2 42787  97.2289  55.0044 0009635 170.2099 189.9320 15.28376206252007
SUCHAI                  
1 42788U 17036Z   22003.64993443  .00005077  00000+0  19550-3 0  9996
2 42788  97.2254  52.3981 0010467 178.6151 181.5119 15.26747536252017
SKCUBE                  
1 42789U 17036AA  22003.65460384  .00004687  00000+0  18279-3 0  9994
2 42789  97.2249  52.0067 0010466 179.2710 180.8546 15.26360621251911
VZLUSAT-1               
1 42790U 17036AB  22003.93987885  .00006071  00000+0  22254-3 0  9994
2 42790  97.2282  54.5420 0009837 171.5952 188.5455 15.28305475252084
ROBUSTA-1B              
1 42792U 17036AD  22003.91594906  .00004270  00000+0  16525-3 0  9995
2 42792  97.2250  52.7254 0009980 178.2672 181.8603 15.26671569251996
CICERO 6                
1 42793U 17036AE  22003.69061001  .00003023  00000+0  12365-3 0  9999
2 42793  97.2224  50.8548 0009422 183.8515 176.2653 15.25039630251946
CORVUS BC2              
1 42846U 17042X   22003.43976517  .00000743  00000+0  77455-4 0  9992
2 42846  97.4431 229.8925 0009301 180.2741 179.8476 14.92481648243667
CORVUS BC1              
1 42847U 17042Y   22004.20194411  .00000292  00000+0  33469-4 0  9990
2 42847  97.4435 230.8889 0009063 176.1402 183.9889 14.92578914243786
MIRATA                  
1 43015U 17073C   22003.69808738  .00004303  00000+0  32562-3 0  9997
2 43015  97.6902 265.2403 0246523   2.0792 358.1386 14.81748731222859
MAKERSAT 0              
1 43016U 17073D   22003.64721525  .00003365  00000+0  25837-3 0  9995
2 43016  97.6931 265.0500 0251333   5.3605 355.0207 14.80697246222796
AEROCUBE 7B (OCSD B)    
1 43042U 17071F   22004.24982065  .00021400  00000+0  32344-3 0  9998
2 43042  51.6349 153.6897 0002287 317.5439  42.5375 15.54649965229994
AEROCUBE 7C (OCSD C)    
1 43043U 17071G   22003.92550794  .00019253  00000+0  29652-3 0  9994
2 43043  51.6334 156.0040 0002490 324.4392  35.6432 15.54205301229907
CHEFSAT                 
1 43044U 17071H   22002.40050506  .14099030  12553-4  55999-3 0  9993
2 43044  51.6046  95.7127 0003260 325.6993  34.3824 16.43926506230571
ASGARDIA 1              
1 43049U 17071N   22003.71612440  .00021738  00000+0  34183-3 0  9990
2 43049  51.6354 157.0254 0000738 351.2084   8.8893 15.53545726229878
ISARA                   
1 43050U 17071P   22003.75993732  .00143189  00000+0  80182-3 0  9997
2 43050  51.6269 108.4909 0003489 335.1768  24.9064 15.78368027230525
PROPCUBE 2 (FAUNA)      
1 43052U 17071R   22004.36073519  .00022141  00000+0  32667-3 0  9998
2 43052  51.6336 148.5553 0000713 337.6101  22.4859 15.55288786230036
CORVUS BC3              
1 43118U 18004H   22003.92285572  .00002749  00000+0  11246-3 0  9995
2 43118  97.3839  78.8853 0008722 216.1854 143.8795 15.25154555221126
MICROMAS-2A             
1 43131U 18004W   22003.73476833  .00007892  00000+0  27717-3 0  9995
2 43131  97.3947  83.4426 0007076 204.1281 155.9629 15.29644400221353
SPACEBEE-4              
1 43139U 18004AE  22003.79155502  .00013401  00000+0  42023-3 0  9996
2 43139  97.4032  86.8805 0006149 197.8403 162.2625 15.33161472221534
SPACEBEE-3              
1 43140U 18004AF  22003.47328385  .00017371  00000+0  49395-3 0  9993
2 43140  97.4075  88.8301 0005665 193.3899 166.7196 15.36200265221627
SPACEBEE-2              
1 43141U 18004AG  22003.89869759  .00017500  00000+0  48006-3 0  9997
2 43141  97.4096  90.1315 0005262 189.1402 170.9747 15.37322378221730
SPACEBEE-1              
1 43142U 18004AH  22004.20520886  .00021295  00000+0  55792-3 0  9995
2 43142  97.4109  91.3471 0005249 183.7899 176.3307 15.38703105221821
CICERO 7                
1 43143U 18004AJ  22004.03321912  .00005519  00000+0  19667-3 0  9998
2 43143  97.3920  83.6531 0005391 211.3030 148.7890 15.29319443221419
GOMX-4B                 
1 43196U 18015E   22004.36282538  .00001419  00000+0  58861-4 0  9999
2 43196  97.5099 142.7336 0016453 274.6606  85.2752 15.25458927218132
GOMX-4A                 
1 43197U 18015F   22004.41850589  .00003222  00000+0  12630-3 0  9990
2 43197  97.5083 143.2519 0016390 275.4682 157.7775 15.26400135218182
AEROCUBE 12A            
1 43556U 18046C   22003.91107828  .00006278  00000+0  20010-3 0  9993
2 43556  51.6391 262.1705 0007821 159.2561 200.8740 15.33823450194021
AEROCUBE 12B            
1 43557U 18046D   22004.22944695  .00003912  00000+0  13260-3 0  9991
2 43557  51.6398 263.4949 0007907 158.0639 202.0683 15.32931971193982
SURFSAT                 
1 43614U 18070B   22003.49084960  .00010343  00000+0  21675-3 0  9995
2 43614  93.0201  29.4395 0010558 315.4461  44.5947 15.45350139185520
CP7 (DAVE)              
1 43615U 18070C   22003.61809376  .00011424  00000+0  24284-3 0  9996
2 43615  93.0204  29.4157 0010771 315.1012  44.9373 15.44921987185527
ELFIN-B                 
1 43616U 18070D   22004.37937163  .00015840  00000+0  28254-3 0  9994
2 43616  93.0156  30.2673 0009394 304.5701  55.4672 15.49993208185836
ELFIN-A                 
1 43617U 18070E   22004.06481025  .00015251  00000+0  26450-3 0  9994
2 43617  93.0212  31.2019 0008647 302.0989  57.9432 15.50801220185819
CUBEBEL-1 (BSUSAT-1)    
1 43666U 18083E   22004.39580997  .00004470  00000+0  20761-3 0  9996
2 43666  97.4390  35.1545 0013785 180.5629 306.2756 15.20437983176530
CICERO 10               
1 43690U 18088A   22003.88856812  .00002785  00000+0  11900-3 0  9995
2 43690  85.0368  65.3223 0015539  41.3562 318.8853 15.22264745174689
